KUIPER-00074            
1 64821U 25151F   25331.86822826 -.00004184  00000+0 -51925-3 0  9994
2 64821  51.9020  20.8399 0013022 293.8337  66.1260 14.79909084 20367
KUIPER-00075            
1 64822U 25151G   25331.78251887  .00066929  00000+0  16376-2 0  9992
2 64822  51.8763 356.7357 0002684 279.3768  80.6916 15.40157529 20698
KUIPER-00076            
1 64823U 25151H   25331.52790026  .00006061  00000+0  82258-3 0  9992
2 64823  51.9010  24.8403 0004122 283.4330  76.6173 14.79972218 20286
KUIPER-00077            
1 64824U 25151J   25331.86011563 -.00001826  00000+0 -21030-3 0  9999
2 64824  51.9035  28.3750 0006064 243.4113 116.6228 14.79929273 20267
KUIPER-00078            
1 64825U 25151K   25331.89657106  .00004841  00000+0  66323-3 0  9994
2 64825  51.9011  25.7101 0007686 310.2483  49.7806 14.79952770 20308
KUIPER-00079            
1 64826U 25151L   25331.38605155  .00003814  00000+0  52600-3 0  9998
2 64826  51.8996  32.9697 0011620 260.8571  99.1077 14.80163927 21356
KUIPER-00080            
1 64827U 25151M   25331.55354761  .00005843  00000+0  79490-3 0  9992
2 64827  51.9002  32.2183 0005284 278.1785  81.8578 14.79925858 20188
KUIPER-00082            
1 64828U 25151N   25331.87072884  .00004082  00000+0  56332-3 0  9995
2 64828  51.9016  18.3256 0004784 297.4951  62.5524 14.79997702 20402
KUIPER-00083            
1 64829U 25151P   25331.86288438  .00004443  00000+0  61029-3 0  9999
2 64829  51.9015  25.8604 0010732 264.0801  95.8938 14.79996037 21483
KUIPER-00084            
1 64830U 25151Q   25331.91960511  .00004967  00000+0  68041-3 0  9998
2 64830  51.9008  35.5955 0011500 236.6736 123.3126 14.79891008 20162
KUIPER-00085            
1 64831U 25151R   25331.83717748 -.00000086  00000+0  17933-4 0  9996
2 64831  51.9066  18.4897 0007187 270.1561  89.8578 14.79886710 20393
KUIPER-00086            
1 64832U 25151S   25330.47584559  .00010286  00000+0  13664-2 0  9995
2 64832  51.9018  34.4985 0010858 256.6927 103.2825 14.80204060 20054
KUIPER-00087            
1 64833U 25151T   25331.84519635  .00004836  00000+0  66241-3 0  9995
2 64833  51.9002  10.9403 0000521 356.3294   3.7665 14.79964990 20490
KUIPER-00089            
1 64834U 25151U   25332.00002315  .00038171  00000+0  49932-2 0  9993
2 64834  51.9016  15.2605 0001145   2.4551 128.2578 14.80055414  5602
KUIPER-00090            
1 64835U 25151V   25332.00002315  .00010490  00000+0  14376-2 0  9992
2 64835  51.8988   6.8168 0008068   7.4190 237.0658 14.78879116  4769
KUIPER-00091            
1 64836U 25151W   25331.43723883 -.00005831  00000+0 -73539-3 0  9991
2 64836  51.9001  15.2507 0007454 316.3562  43.6810 14.79961464 20400
KUIPER-00092            
1 64837U 25151X   25331.83441484  .00004958  00000+0  67780-3 0  9998
2 64837  51.9022  20.9911 0006375 263.1588  96.8649 14.79996253 21577
KUIPER-00093            
1 64838U 25151Y   25331.35899248 -.00003008  00000+0 -36475-3 0  9995
2 64838  51.9009  25.5773 0013734 267.7417  92.1972 14.79918384 20259
KUIPER-00094            
1 64839U 25151Z   25331.84395855  .00009692  00000+0  70640-3 0  9990
2 64839  51.8908  10.7815 0004833 302.9175  57.1333 15.04310276 20508
KUIPER-00081            
1 65132U 25171A   25332.00002315 -.01674379  00000+0 -98698-1 0  9998
2 65132  51.8861 242.1387 0003235 170.3682 282.4825 15.14765389  3064
KUIPER-00088            
1 65133U 25171B   25332.00002315 -.00047076  00000+0 -66454-2 0  9992
2 65133  51.8984 255.0626 0008221 138.2285 305.1820 14.76905413  1496
KUIPER-00095            
1 65134U 25171C   25332.00002315 -.00020223  00000+0 -11411-2 0  9991
2 65134  51.8819 243.0907 0006895 140.5847 134.7159 15.12242098  3585
KUIPER-00096            
1 65135U 25171D   25332.00002315 -.00038058  00000+0 -42985-2 0  9997
2 65135  51.8958 247.8805 0012313 162.3258 257.6414 14.86045622  5056
KUIPER-00097            
1 65136U 25171E   25332.00002315 -.00083136  00000+0 -10235-1 0  9997
2 65136  51.8982 250.3560 0008143 179.2603 333.0334 14.82946983  3489
KUIPER-00098            
1 65137U 25171F   25330.95915822  .00014035  00000+0  18648-2 0  9993
2 65137  51.8999 257.3634 0007991 152.8268 207.3114 14.79948074 16955
KUIPER-00099            
1 65138U 25171G   25332.00002315 -.00051434  00000+0 -36371-2 0  9995
2 65138  51.8920 244.4089 0007623 177.5192 262.7548 15.04484573  4965
KUIPER-00100            
1 65139U 25171H   25332.00002315 -.00008532  00000+0 -45712-3 0  9997
2 65139  51.8841 243.1372 0002326 179.9870 142.8061 15.13300109  5863
KUIPER-00102            
1 65140U 25171J   25332.00002315 -.01696616  00000+0 -12461+0 0  9997
2 65140  51.8890 244.2931 0011867 158.2461 243.2505 15.06240150  4058
KUIPER-00103            
1 65141U 25171K   25331.18731739 -.00000543  00000+0 -42066-4 0  9991
2 65141  51.9007 263.8476 0005930 147.1986 212.9346 14.79911593 17532
KUIPER-00104            
1 65142U 25171L   25332.00002315 -.01362723  00000+0 -13185+0 0  9992
2 65142  51.8927 247.3444 0004350 180.1744 265.7566 14.95734481  3968
KUIPER-00105            
1 65143U 25171M   25331.22671778  .00024342  00000+0  32065-2 0  9991
2 65143  51.8993 258.7446 0013180 125.3272 234.8924 14.79932282 17611
KUIPER-00106            
1 65144U 25171N   25331.22564059  .00006798  00000+0  61673-3 0  9998
2 65144  51.8928 260.3189 0009982 117.0913 243.1076 14.96291215 17599
KUIPER-00107            
1 65145U 25171P   25332.00002315 -.00988481  00000+0 -57152-1 0  9993
2 65145  51.8891 242.1385 0006594 166.7476 218.4458 15.14741821  5428
KUIPER-00108            
1 65146U 25171Q   25332.00002315 -.00038037  00000+0 -49827-2 0  9998
2 65146  51.9006 250.2610 0007904 140.1345 173.8382 14.79955872  5610
KUIPER-00109            
1 65147U 25171R   25332.00002315 -.00035541  00000+0 -30717-2 0  9994
2 65147  51.8965 245.9600 0012190 154.6397 245.0373 14.96645613  4286
KUIPER-00110            
1 65148U 25171S   25332.00002315 -.00025618  00000+0 -35978-2 0  9993
2 65148  51.8977 257.4683 0011702 131.3437  46.0112 14.76795362  3671
KUIPER-00111            
1 65149U 25171T   25331.21836994  .00005478  00000+0  74804-3 0  9996
2 65149  51.8967 266.2008 0009727 136.8830 223.2895 14.79862546 17507
KUIPER-00112            
1 65150U 25171U   25332.00002315 -.00061912  00000+0 -57560-2 0  9994
2 65150  51.8933 245.8424 0009159 170.8270 183.9427 14.94095327  4110
KUIPER-00114            
1 65151U 25171V   25331.21569752 -.00001889  00000+0 -21882-3 0  9996
2 65151  51.8997 268.7456 0006701 124.3353 235.8245 14.79887685 17462
KUIPER-00115            
1 65152U 25171W   25331.22370037 -.00001073  00000+0 -11118-3 0  9990
2 65152  51.9003 261.1882 0010652 149.1185 211.0406 14.79955552 17576
KUIPER-00116            
1 65153U 25171X   25331.25214048  .00005282  00000+0  72060-3 0  9990
2 65153  51.8989 266.1105 0010670 113.5891 246.6193 14.79955926 17506
KUIPER-00118            
1 65154U 25171Y   25330.84419525  .00000126  00000+0  45641-4 0  9990
2 65154  51.8982 270.3642 0001955 117.4201 242.6960 14.79937036 17417
KUIPER-00119            
1 65155U 25171Z   25331.19545646  .00004055  00000+0  56005-3 0  9994
2 65155  51.8994 256.3981 0009130 137.9652 222.2012 14.79969221 17638
KUIPER-00120            
1 65762U 25217A   25331.84472288  .00005428  00000+0  54783-3 0  9998
2 65762  51.8926 143.5546 0016164 315.1048  44.8612 14.92362816  9654
KUIPER-00132            
1 65763U 25217B   25331.75013330  .00030723  00000+0  84132-3 0  9995
2 65763  51.8622 137.2300 0005600 323.2009  36.8592 15.37047907  9734
KUIPER-00133            
1 65764U 25217C   25332.00002315  .00020563  00000+0  22663-2 0  9997
2 65764  51.8961 142.8763 0011184 342.3343 270.3397 14.87435406  5758
KUIPER-00139            
1 65765U 25217D   25332.00002315 -.01175669  00000+0 -87034-1 0  9991
2 65765  51.8808 139.4219 0007029 326.6192 162.4722 15.05877318  4404
KUIPER-00142            
1 65766U 25217E   25331.77623109  .00047204  00000+0  12716-2 0  9991
2 65766  51.8683 136.6978 0002993 302.7236  57.3462 15.37363348  9749
KUIPER-00145            
1 65767U 25217F   25332.00002315 -.01017014  00000+0 -37025-1 0  9997
2 65767  51.8729 135.9290 0006253 301.5716  54.0064 15.30357116  5919
KUIPER-00147            
1 65768U 25217G   25332.00002315  .00005715  00000+0  26928-3 0  9992
2 65768  51.8737 136.7461 0009100 323.8207 324.5594 15.20901820  3685
KUIPER-00148            
1 65769U 25217H   25332.00002315  .00023752  00000+0  95254-3 0  9992
2 65769  51.8641 136.9228 0008230 344.8120 248.2096 15.24856262  2213
KUIPER-00150            
1 65770U 25217J   25332.00002315 -.00517920  00000+0 -48799-1 0  9991
2 65770  51.8906 140.9436 0009432 328.2767  15.9878 14.95799671  4208
KUIPER-00151            
1 65771U 25217K   25332.00002315 -.00380568  00000+0 -18963-1 0  9998
2 65771  51.8736 137.1619 0003056 282.6136 224.8691 15.18860005  5313
KUIPER-00152            
1 65772U 25217L   25331.94172220  .00044193  00000+0  11420-2 0  9995
2 65772  51.8703 135.5689 0002348 244.1080 115.9666 15.38677012  9773
KUIPER-00153            
1 65773U 25217M   25331.74945326  .00010152  00000+0  62120-3 0  9991
2 65773  51.8763 141.7114 0011806 327.4131  32.6115 15.10718115  9676
KUIPER-00155            
1 65774U 25217N   25331.74762426  .00041194  00000+0  11281-2 0  9991
2 65774  51.8646 137.2256 0005468 312.5297  47.5227 15.36904517  9736
KUIPER-00156            
1 65775U 25217P   25331.75557747  .00043928  00000+0  11408-2 0  9999
2 65775  51.8701 136.5711 0002654 256.8414 103.2277 15.38524328  9748
KUIPER-00158            
1 65776U 25217Q   25332.00002315  .00028689  00000+0  16303-2 0  9991
2 65776  51.8771 138.1423 0004650 288.8009 104.9461 15.12669580  4972
KUIPER-00163            
1 65777U 25217R   25332.00002315 -.00653239  00000+0 -48984-1 0  9998
2 65777  51.8799 139.4535 0010454 338.0008  33.8644 15.04626950  3491
